ONEWEB-0378             
1 49304U 21090AB  25238.71704729 -.00000025  00000+0 -92609-4 0  9997
2 49304  87.9311 333.1341 0002034  99.1227 261.0137 13.20773410190916
ONEWEB-0379             
1 49305U 21090AC  25238.84262285  .00000147  00000+0  36186-3 0  9998
2 49305  87.9092 348.2937 0001868  95.9465 264.1878 13.14501741188892
ONEWEB-0380             
1 49306U 21090AD  25238.86432074 -.00000023  00000+0 -90058-4 0  9990
2 49306  87.9271   3.4899 0001935 103.7184 256.4164 13.19725580187604
ONEWEB-0381             
1 49307U 21090AE  25238.69168922  .00000026  00000+0  31400-4 0  9997
2 49307  87.9300 333.1375 0002186 102.3018 257.8360 13.20770369190952
ONEWEB-0382             
1 49308U 21090AF  25238.83054951 -.00000012  00000+0 -62080-4 0  9995
2 49308  87.9298 333.1009 0002264  98.6492 261.4898 13.20772698190968
ONEWEB-0383             
1 49309U 21090AG  25238.83627882  .00000181  00000+0  45244-3 0  9992
2 49309  87.9095 348.2744 0001975  95.9379 264.1976 13.14501796188921
ONEWEB-0384             
1 49310U 21090AH  25238.67433721  .00004494  00000+0  11016-1 0  9992
2 49310  87.9311 333.1545 0002768  96.2734 263.8715 13.20766047190958
ONEWEB-0385             
1 49311U 21090AJ  25238.82267908 -.00000041  00000+0 -13272-3 0  9996
2 49311  87.9288 333.1154 0002073  99.2672 260.8696 13.20770613190949
ONEWEB-0386             
1 49312U 21090AK  25238.68852040  .00000027  00000+0  33962-4 0  9999
2 49312  87.9299 333.1159 0002185  96.4188 263.7194 13.20771600190944
ONEWEB-0387             
1 49313U 21090AL  25238.82424489 -.00000029  00000+0 -10438-3 0  9994
2 49313  87.9289 333.1443 0002165 106.1520 253.9852 13.20772394190962
ONEWEB-0388             
1 49314U 21090AM  25238.85960741  .00000058  00000+0  11327-3 0  9992
2 49314  87.9269   3.4972 0001957  97.3412 262.7943 13.19725008187596
ONEWEB-0389             
1 50469U 21132A   25238.94607061  .00000010  00000+0 -77852-5 0  9991
2 50469  87.9033  64.4128 0002065  95.7762 264.3605 13.17648649179338
ONEWEB-0390             
1 50470U 21132B   25238.94773931 -.00000061  00000+0 -19101-3 0  9991
2 50470  87.9033  64.4185 0001550  95.6557 264.4752 13.17647823179339
ONEWEB-0391             
1 50471U 21132C   25238.94943699  .00000012  00000+0 -15331-5 0  9990
2 50471  87.9026  64.4322 0002244 110.0497 250.0877 13.17649551179330
ONEWEB-0392             
1 50472U 21132D   25238.90387485  .00000030  00000+0  44881-4 0  9992
2 50472  87.9035  64.3855 0002033  98.1100 262.0262 13.17649745179363
ONEWEB-0393             
1 50473U 21132E   25238.95290543 -.00000113  00000+0 -32535-3 0  9992
2 50473  87.9037  64.3966 0002103  97.8872 262.2498 13.17649103179360
