[{"OBJECT_NAME":"ONEWEB-0378","OBJECT_ID":"2021-090AB","EPOCH":"2025-08-26T17:12:32.885856","MEAN_MOTION":13.2077341,"ECCENTRICITY":0.00020341,"INCLINATION":87.9311,"RA_OF_ASC_NODE":333.1341,"ARG_OF_PERICENTER":99.1227,"MEAN_ANOMALY":261.0137,"EPHEMERIS_TYPE":0,"CLASSIFICATION_TYPE":"U","NORAD_CAT_ID":49304,"ELEMENT_SET_NO":999,"REV_AT_EPOCH":19091,"BSTAR":-9.2609045e-5,"MEAN_MOTION_DOT":-2.5e-7,"MEAN_MOTION_DDOT":0},{"OBJECT_NAME":"ONEWEB-0379","OBJECT_ID":"2021-090AC","EPOCH":"2025-08-26T20:13:22.614240","MEAN_MOTION":13.14501741,"ECCENTRICITY":0.00018683,"INCLINATION":87.9092,"RA_OF_ASC_NODE":348.2937,"ARG_OF_PERICENTER":95.9465,"MEAN_ANOMALY":264.1878,"EPHEMERIS_TYPE":0,"CLASSIFICATION_TYPE":"U","NORAD_CAT_ID":49305,"ELEMENT_SET_NO":999,"REV_AT_EPOCH":18889,"BSTAR":0.00036186327,"MEAN_MOTION_DOT":1.47e-6,"MEAN_MOTION_DDOT":0},{"OBJECT_NAME":"ONEWEB-0380","OBJECT_ID":"2021-090AD","EPOCH":"2025-08-26T20:44:37.311936","MEAN_MOTION":13.1972558,"ECCENTRICITY":0.00019351,"INCLINATION":87.9271,"RA_OF_ASC_NODE":3.4899,"ARG_OF_PERICENTER":103.7184,"MEAN_ANOMALY":256.4164,"EPHEMERIS_TYPE":0,"CLASSIFICATION_TYPE":"U","NORAD_CAT_ID":49306,"ELEMENT_SET_NO":999,"REV_AT_EPOCH":18760,"BSTAR":-9.0058159e-5,"MEAN_MOTION_DOT":-2.3e-7,"MEAN_MOTION_DDOT":0},{"OBJECT_NAME":"ONEWEB-0381","OBJECT_ID":"2021-090AE","EPOCH":"2025-08-26T16:36:01.948608","MEAN_MOTION":13.20770369,"ECCENTRICITY":0.00021869,"INCLINATION":87.93,"RA_OF_ASC_NODE":333.1375,"ARG_OF_PERICENTER":102.3018,"MEAN_ANOMALY":257.836,"EPHEMERIS_TYPE":0,"CLASSIFICATION_TYPE":"U","NORAD_CAT_ID":49307,"ELEMENT_SET_NO":999,"REV_AT_EPOCH":19095,"BSTAR":3.1399551e-5,"MEAN_MOTION_DOT":2.6e-7,"MEAN_MOTION_DDOT":0},{"OBJECT_NAME":"ONEWEB-0382","OBJECT_ID":"2021-090AF","EPOCH":"2025-08-26T19:55:59.477664","MEAN_MOTION":13.20772698,"ECCENTRICITY":0.00022645,"INCLINATION":87.9298,"RA_OF_ASC_NODE":333.1009,"ARG_OF_PERICENTER":98.6492,"MEAN_ANOMALY":261.4898,"EPHEMERIS_TYPE":0,"CLASSIFICATION_TYPE":"U","NORAD_CAT_ID":49308,"ELEMENT_SET_NO":999,"REV_AT_EPOCH":19096,"BSTAR":-6.2079613e-5,"MEAN_MOTION_DOT":-1.2e-7,"MEAN_MOTION_DDOT":0},{"OBJECT_NAME":"ONEWEB-0383","OBJECT_ID":"2021-090AG","EPOCH":"2025-08-26T20:04:14.490048","MEAN_MOTION":13.14501796,"ECCENTRICITY":0.00019755,"INCLINATION":87.9095,"RA_OF_ASC_NODE":348.2744,"ARG_OF_PERICENTER":95.9379,"MEAN_ANOMALY":264.1976,"EPHEMERIS_TYPE":0,"CLASSIFICATION_TYPE":"U","NORAD_CAT_ID":49309,"ELEMENT_SET_NO":999,"REV_AT_EPOCH":18892,"BSTAR":0.00045243643,"MEAN_MOTION_DOT":1.81e-6,"MEAN_MOTION_DDOT":0},{"OBJECT_NAME":"ONEWEB-0384","OBJECT_ID":"2021-090AH","EPOCH":"2025-08-26T16:11:02.734944","MEAN_MOTION":13.20766047,"ECCENTRICITY":0.00027681,"INCLINATION":87.9311,"RA_OF_ASC_NODE":333.1545,"ARG_OF_PERICENTER":96.2734,"MEAN_ANOMALY":263.8715,"EPHEMERIS_TYPE":0,"CLASSIFICATION_TYPE":"U","NORAD_CAT_ID":49310,"ELEMENT_SET_NO":999,"REV_AT_EPOCH":19095,"BSTAR":0.011015857,"MEAN_MOTION_DOT":4.494e-5,"MEAN_MOTION_DDOT":0},{"OBJECT_NAME":"ONEWEB-0385","OBJECT_ID":"2021-090AJ","EPOCH":"2025-08-26T19:44:39.472512","MEAN_MOTION":13.20770613,"ECCENTRICITY":0.00020732,"INCLINATION":87.9288,"RA_OF_ASC_NODE":333.1154,"ARG_OF_PERICENTER":99.2672,"MEAN_ANOMALY":260.8696,"EPHEMERIS_TYPE":0,"CLASSIFICATION_TYPE":"U","NORAD_CAT_ID":49311,"ELEMENT_SET_NO":999,"REV_AT_EPOCH":19094,"BSTAR":-0.00013272168,"MEAN_MOTION_DOT":-4.1e-7,"MEAN_MOTION_DDOT":0},{"OBJECT_NAME":"ONEWEB-0386","OBJECT_ID":"2021-090AK","EPOCH":"2025-08-26T16:31:28.162560","MEAN_MOTION":13.207716,"ECCENTRICITY":0.00021853,"INCLINATION":87.9299,"RA_OF_ASC_NODE":333.1159,"ARG_OF_PERICENTER":96.4188,"MEAN_ANOMALY":263.7194,"EPHEMERIS_TYPE":0,"CLASSIFICATION_TYPE":"U","NORAD_CAT_ID":49312,"ELEMENT_SET_NO":999,"REV_AT_EPOCH":19094,"BSTAR":3.3962306e-5,"MEAN_MOTION_DOT":2.7e-7,"MEAN_MOTION_DDOT":0},{"OBJECT_NAME":"ONEWEB-0387","OBJECT_ID":"2021-090AL","EPOCH":"2025-08-26T19:46:54.758496","MEAN_MOTION":13.20772394,"ECCENTRICITY":0.00021658,"INCLINATION":87.9289,"RA_OF_ASC_NODE":333.1443,"ARG_OF_PERICENTER":106.152,"MEAN_ANOMALY":253.9852,"EPHEMERIS_TYPE":0,"CLASSIFICATION_TYPE":"U","NORAD_CAT_ID":49313,"ELEMENT_SET_NO":999,"REV_AT_EPOCH":19096,"BSTAR":-0.00010437911,"MEAN_MOTION_DOT":-2.9e-7,"MEAN_MOTION_DDOT":0},{"OBJECT_NAME":"ONEWEB-0388","OBJECT_ID":"2021-090AM","EPOCH":"2025-08-26T20:37:50.080224","MEAN_MOTION":13.19725008,"ECCENTRICITY":0.00019573,"INCLINATION":87.9269,"RA_OF_ASC_NODE":3.4972,"ARG_OF_PERICENTER":97.3412,"MEAN_ANOMALY":262.7943,"EPHEMERIS_TYPE":0,"CLASSIFICATION_TYPE":"U","NORAD_CAT_ID":49314,"ELEMENT_SET_NO":999,"REV_AT_EPOCH":18759,"BSTAR":0.00011326608,"MEAN_MOTION_DOT":5.8e-7,"MEAN_MOTION_DDOT":0},{"OBJECT_NAME":"ONEWEB-0389","OBJECT_ID":"2021-132A","EPOCH":"2025-08-26T22:42:20.500704","MEAN_MOTION":13.17648649,"ECCENTRICITY":0.00020658,"INCLINATION":87.9033,"RA_OF_ASC_NODE":64.4128,"ARG_OF_PERICENTER":95.7762,"MEAN_ANOMALY":264.3605,"EPHEMERIS_TYPE":0,"CLASSIFICATION_TYPE":"U","NORAD_CAT_ID":50469,"ELEMENT_SET_NO":999,"REV_AT_EPOCH":17933,"BSTAR":-7.785153e-6,"MEAN_MOTION_DOT":1.0e-7,"MEAN_MOTION_DDOT":0},{"OBJECT_NAME":"ONEWEB-0390","OBJECT_ID":"2021-132B","EPOCH":"2025-08-26T22:44:44.676384","MEAN_MOTION":13.17647823,"ECCENTRICITY":0.00015501,"INCLINATION":87.9033,"RA_OF_ASC_NODE":64.4185,"ARG_OF_PERICENTER":95.6557,"MEAN_ANOMALY":264.4752,"EPHEMERIS_TYPE":0,"CLASSIFICATION_TYPE":"U","NORAD_CAT_ID":50470,"ELEMENT_SET_NO":999,"REV_AT_EPOCH":17933,"BSTAR":-0.00019101337,"MEAN_MOTION_DOT":-6.1e-7,"MEAN_MOTION_DDOT":0},{"OBJECT_NAME":"ONEWEB-0391","OBJECT_ID":"2021-132C","EPOCH":"2025-08-26T22:47:11.355936","MEAN_MOTION":13.17649551,"ECCENTRICITY":0.00022445,"INCLINATION":87.9026,"RA_OF_ASC_NODE":64.4322,"ARG_OF_PERICENTER":110.0497,"MEAN_ANOMALY":250.0877,"EPHEMERIS_TYPE":0,"CLASSIFICATION_TYPE":"U","NORAD_CAT_ID":50471,"ELEMENT_SET_NO":999,"REV_AT_EPOCH":17933,"BSTAR":-1.533079e-6,"MEAN_MOTION_DOT":1.2e-7,"MEAN_MOTION_DDOT":0},{"OBJECT_NAME":"ONEWEB-0392","OBJECT_ID":"2021-132D","EPOCH":"2025-08-26T21:41:34.787040","MEAN_MOTION":13.17649745,"ECCENTRICITY":0.00020336,"INCLINATION":87.9035,"RA_OF_ASC_NODE":64.3855,"ARG_OF_PERICENTER":98.11,"MEAN_ANOMALY":262.0262,"EPHEMERIS_TYPE":0,"CLASSIFICATION_TYPE":"U","NORAD_CAT_ID":50472,"ELEMENT_SET_NO":999,"REV_AT_EPOCH":17936,"BSTAR":4.4881284e-5,"MEAN_MOTION_DOT":3.0e-7,"MEAN_MOTION_DDOT":0},{"OBJECT_NAME":"ONEWEB-0393","OBJECT_ID":"2021-132E","EPOCH":"2025-08-26T22:52:11.029152","MEAN_MOTION":13.17649103,"ECCENTRICITY":0.00021032,"INCLINATION":87.9037,"RA_OF_ASC_NODE":64.3966,"ARG_OF_PERICENTER":97.8872,"MEAN_ANOMALY":262.2498,"EPHEMERIS_TYPE":0,"CLASSIFICATION_TYPE":"U","NORAD_CAT_ID":50473,"ELEMENT_SET_NO":999,"REV_AT_EPOCH":17936,"BSTAR":-0.000325349,"MEAN_MOTION_DOT":-1.13e-6,"MEAN_MOTION_DDOT":0}]
